*******************************************************************************
Ephemeris / WWW_USER Mon Mar 10 07:12:40 2025 Pasadena, USA      / Horizons    
*******************************************************************************
Target body name: (2018 OG)                       {source: JPL#12}
Center body name: Earth (399)                     {source: DE441}
Center-site name: Mauna Kea
*******************************************************************************
Start time      : A.D. 2018-Dec-06 03:52:00.0000 UT      
Stop  time      : A.D. 2018-Dec-06 16:33:00.0000 UT      
Step-size       : 1 minutes
*******************************************************************************
Target pole/equ : undefined
Target radii    : undefined                                                    
Center geodetic : 204.5278, 19.8260847, 4.21024   {E-lon(deg),Lat(deg),Alt(km)}
Center cylindric: 204.5278, 6006.35451, 2151.0229 {E-lon(deg),Dxy(km),Dz(km)}
Center pole/equ : ITRF93                          {East-longitude positive}
Center radii    : 6378.137, 6378.137, 6356.752 km {Equator_a, b, pole_c}       
Target primary  : Sun
Vis. interferer : MOON (R_eq= 1737.400) km        {source: DE441}
Rel. light bend : Sun                             {source: DE441}
Rel. lght bnd GM: 1.3271E+11 km^3/s^2                                          
Small-body perts: Yes                             {source: SB441-N16}
Atmos refraction: NO (AIRLESS)
RA format       : HMS
Time format     : CAL 
Calendar mode   : Mixed Julian/Gregorian
RTS-only print  : NO       
EOP file        : eop.250307.p250603                                           
EOP coverage    : DATA-BASED 1962-JAN-20 TO 2025-MAR-07. PREDICTS-> 2025-JUN-02
Units conversion: 1 au= 149597870.700 km, c= 299792.458 km/s, 1 day= 86400.0 s 
Table cut-offs 1: Elevation (-90.0deg=NO ),Airmass (>38.000=NO), Daylight (YES)
Table cut-offs 2: Solar elongation (  0.0,180.0=NO ),Local Hour Angle( 0.0=NO )
Table cut-offs 3: RA/DEC angular rate (     0.0=NO )                           
*******************************************************************************
Initial IAU76/J2000 heliocentric ecliptic osculating elements (au, days, deg.):
  EPOCH=  2458389.5 ! 2018-Sep-28.00 (TDB)         Residual RMS= .17662        
   EC= .5817218672922059   QR= .9873203561553971   TP= 2458366.942240702       
   OM= 131.0345430575832   W=  220.7633135105564   IN= 9.123860581277821       
  Equivalent ICRF heliocentric cartesian coordinates (au, au/d):
   X= 9.625437195102586E-01  Y= 3.686106454146055E-01  Z=-5.877845729655690E-03
  VX=-3.555418036941177E-03 VY= 1.979451357965206E-02 VZ= 6.659913004156397E-03
Asteroid physical parameters (km, seconds, rotational period in hours):        
   GM= n.a.                RAD= n.a.               ROTPER= n.a.                
   H= 23.6                 G= .150                 B-V= n.a.                   
                           ALBEDO= n.a.            STYP= n.a.                  
*******************************************************************************
 Date__(UT)__HR:MN     R.A._________(ICRF)_________DEC
******************************************************
$$SOE
 2018-Dec-06 14:07     05 40 25.951382 +02 33 57.44884
 2018-Dec-06 14:08     05 40 25.875989 +02 33 58.12351
 2018-Dec-06 14:09     05 40 25.800610 +02 33 58.79818
 2018-Dec-06 14:10     05 40 25.725247 +02 33 59.47284
 2018-Dec-06 14:11     05 40 25.649898 +02 34 00.14749
 2018-Dec-06 14:12     05 40 25.574565 +02 34 00.82214
 2018-Dec-06 14:13     05 40 25.499247 +02 34 01.49678
 2018-Dec-06 14:14     05 40 25.423944 +02 34 02.17141
 2018-Dec-06 14:15     05 40 25.348656 +02 34 02.84604
 2018-Dec-06 14:16     05 40 25.273383 +02 34 03.52066
 2018-Dec-06 14:17     05 40 25.198127 +02 34 04.19528
 2018-Dec-06 14:18     05 40 25.122885 +02 34 04.86989
 2018-Dec-06 14:19     05 40 25.047659 +02 34 05.54450
 2018-Dec-06 14:20     05 40 24.972449 +02 34 06.21910
 2018-Dec-06 14:21     05 40 24.897254 +02 34 06.89369
 2018-Dec-06 14:22     05 40 24.822075 +02 34 07.56828
 2018-Dec-06 14:23     05 40 24.746911 +02 34 08.24286
 2018-Dec-06 14:24     05 40 24.671764 +02 34 08.91744
 2018-Dec-06 14:25     05 40 24.596632 +02 34 09.59201
 2018-Dec-06 14:26     05 40 24.521516 +02 34 10.26658
 2018-Dec-06 14:27     05 40 24.446417 +02 34 10.94114
 2018-Dec-06 14:28     05 40 24.371333 +02 34 11.61569
 2018-Dec-06 14:29     05 40 24.296265 +02 34 12.29024
 2018-Dec-06 14:30     05 40 24.221213 +02 34 12.96479
 2018-Dec-06 14:31     05 40 24.146178 +02 34 13.63933
 2018-Dec-06 14:32     05 40 24.071159 +02 34 14.31386
 2018-Dec-06 14:33     05 40 23.996156 +02 34 14.98839
 2018-Dec-06 14:34     05 40 23.921169 +02 34 15.66291
 2018-Dec-06 14:35     05 40 23.846199 +02 34 16.33743
 2018-Dec-06 14:36     05 40 23.771245 +02 34 17.01195
 2018-Dec-06 14:37     05 40 23.696308 +02 34 17.68645
 2018-Dec-06 14:38     05 40 23.621387 +02 34 18.36096
 2018-Dec-06 14:39     05 40 23.546483 +02 34 19.03546
 2018-Dec-06 14:40     05 40 23.471595 +02 34 19.70995
 2018-Dec-06 14:41     05 40 23.396724 +02 34 20.38444
 2018-Dec-06 14:42     05 40 23.321870 +02 34 21.05893
 2018-Dec-06 14:43     05 40 23.247033 +02 34 21.73340
 2018-Dec-06 14:44     05 40 23.172212 +02 34 22.40788
 2018-Dec-06 14:45     05 40 23.097409 +02 34 23.08235
 2018-Dec-06 14:46     05 40 23.022622 +02 34 23.75682
 2018-Dec-06 14:47     05 40 22.947852 +02 34 24.43128
 2018-Dec-06 14:48     05 40 22.873100 +02 34 25.10574
 2018-Dec-06 14:49     05 40 22.798364 +02 34 25.78019
 2018-Dec-06 14:50     05 40 22.723645 +02 34 26.45464
 2018-Dec-06 14:51     05 40 22.648944 +02 34 27.12908
 2018-Dec-06 14:52     05 40 22.574260 +02 34 27.80352
 2018-Dec-06 14:53     05 40 22.499593 +02 34 28.47796
 2018-Dec-06 14:54     05 40 22.424944 +02 34 29.15239
 2018-Dec-06 14:55     05 40 22.350311 +02 34 29.82681
 2018-Dec-06 14:56     05 40 22.275697 +02 34 30.50124
 2018-Dec-06 14:57     05 40 22.201099 +02 34 31.17566
 2018-Dec-06 14:58     05 40 22.126519 +02 34 31.85007
 2018-Dec-06 14:59     05 40 22.051957 +02 34 32.52448
 2018-Dec-06 15:00     05 40 21.977412 +02 34 33.19889
 2018-Dec-06 15:01     05 40 21.902885 +02 34 33.87329
 2018-Dec-06 15:02     05 40 21.828376 +02 34 34.54769
 2018-Dec-06 15:03     05 40 21.753884 +02 34 35.22209
 2018-Dec-06 15:04     05 40 21.679410 +02 34 35.89648
 2018-Dec-06 15:05     05 40 21.604954 +02 34 36.57087
 2018-Dec-06 15:06     05 40 21.530515 +02 34 37.24526
 2018-Dec-06 15:07     05 40 21.456095 +02 34 37.91964
 2018-Dec-06 15:08     05 40 21.381692 +02 34 38.59402
 2018-Dec-06 15:09     05 40 21.307307 +02 34 39.26839
 2018-Dec-06 15:10     05 40 21.232941 +02 34 39.94276
 2018-Dec-06 15:11     05 40 21.158592 +02 34 40.61713
 2018-Dec-06 15:12     05 40 21.084262 +02 34 41.29150
 2018-Dec-06 15:13     05 40 21.009949 +02 34 41.96586
 2018-Dec-06 15:14     05 40 20.935655 +02 34 42.64022
 2018-Dec-06 15:15     05 40 20.861379 +02 34 43.31457
 2018-Dec-06 15:16     05 40 20.787121 +02 34 43.98892
 2018-Dec-06 15:17     05 40 20.712881 +02 34 44.66327
 2018-Dec-06 15:18     05 40 20.638660 +02 34 45.33762
 2018-Dec-06 15:19     05 40 20.564457 +02 34 46.01196
 2018-Dec-06 15:20     05 40 20.490273 +02 34 46.68630
 2018-Dec-06 15:21     05 40 20.416107 +02 34 47.36064
 2018-Dec-06 15:22     05 40 20.341959 +02 34 48.03498
 2018-Dec-06 15:23     05 40 20.267830 +02 34 48.70931
 2018-Dec-06 15:24     05 40 20.193719 +02 34 49.38364
 2018-Dec-06 15:25     05 40 20.119627 +02 34 50.05797
 2018-Dec-06 15:26 A   05 40 20.045554 +02 34 50.73229
 2018-Dec-06 15:27 A   05 40 19.971499 +02 34 51.40661
 2018-Dec-06 15:28 A   05 40 19.897463 +02 34 52.08093
 2018-Dec-06 15:29 A   05 40 19.823445 +02 34 52.75525
 2018-Dec-06 15:30 A   05 40 19.749447 +02 34 53.42956
 2018-Dec-06 15:31 A   05 40 19.675467 +02 34 54.10388
 2018-Dec-06 15:32 A   05 40 19.601505 +02 34 54.77819
 2018-Dec-06 15:33 A   05 40 19.527563 +02 34 55.45250
 2018-Dec-06 15:34 A   05 40 19.453640 +02 34 56.12680
 2018-Dec-06 15:35 A   05 40 19.379735 +02 34 56.80111
 2018-Dec-06 15:36 A   05 40 19.305850 +02 34 57.47541
 2018-Dec-06 15:37 A   05 40 19.231983 +02 34 58.14971
 2018-Dec-06 15:38 A   05 40 19.158135 +02 34 58.82401
 2018-Dec-06 15:39 A   05 40 19.084307 +02 34 59.49830
 2018-Dec-06 15:40 A   05 40 19.010497 +02 35 00.17260
 2018-Dec-06 15:41 A   05 40 18.936707 +02 35 00.84689
 2018-Dec-06 15:42 A   05 40 18.862935 +02 35 01.52118
 2018-Dec-06 15:43 A   05 40 18.789183 +02 35 02.19547
 2018-Dec-06 15:44 A   05 40 18.715450 +02 35 02.86976
 2018-Dec-06 15:45 A   05 40 18.641736 +02 35 03.54405
 2018-Dec-06 15:46 A   05 40 18.568042 +02 35 04.21833
 2018-Dec-06 15:47 A   05 40 18.494366 +02 35 04.89262
 2018-Dec-06 15:48 A   05 40 18.420710 +02 35 05.56690
 2018-Dec-06 15:49 A   05 40 18.347073 +02 35 06.24118
 2018-Dec-06 15:50 A   05 40 18.273456 +02 35 06.91546
 2018-Dec-06 15:51 A   05 40 18.199858 +02 35 07.58974
 2018-Dec-06 15:52 A   05 40 18.126279 +02 35 08.26402
 2018-Dec-06 15:53 N   05 40 18.052720 +02 35 08.93829
 2018-Dec-06 15:54 N   05 40 17.979180 +02 35 09.61257
 2018-Dec-06 15:55 N   05 40 17.905660 +02 35 10.28684
 2018-Dec-06 15:56 N   05 40 17.832159 +02 35 10.96111
 2018-Dec-06 15:57 N   05 40 17.758678 +02 35 11.63539
 2018-Dec-06 15:58 N   05 40 17.685216 +02 35 12.30966
 2018-Dec-06 15:59 N   05 40 17.611774 +02 35 12.98393
 2018-Dec-06 16:00 N   05 40 17.538351 +02 35 13.65820
 2018-Dec-06 16:01 N   05 40 17.464948 +02 35 14.33247
 2018-Dec-06 16:02 Nm  05 40 17.391565 +02 35 15.00674
 2018-Dec-06 16:03 Nm  05 40 17.318201 +02 35 15.68101
 2018-Dec-06 16:04 Nm  05 40 17.244857 +02 35 16.35528
 2018-Dec-06 16:05 Nm  05 40 17.171533 +02 35 17.02955
 2018-Dec-06 16:06 Nm  05 40 17.098228 +02 35 17.70381
 2018-Dec-06 16:07 Nm  05 40 17.024943 +02 35 18.37808
 2018-Dec-06 16:08 Nm  05 40 16.951678 +02 35 19.05235
 2018-Dec-06 16:09 Nm  05 40 16.878433 +02 35 19.72661
